start=new Date('2022-03-04T00:00:00.000Z').valueOf();
sats=[{"MEAN_MOTION":"15.06390963","GP_ID":"197768341","TLE_LINE2":"2 47823  53.0556 356.4400 0001761  58.6128 301.5033 15.06390963 55510","SITE":"AFETR","PERIAPSIS":"546.022","ECCENTRICITY":"0.00017610","MEAN_MOTION_DOT":"0.00000812","OBJECT_NAME":"STARLINK-2408","FILE":"3343255","BSTAR":"0.00007341900000","OBJECT_ID":"2021-018AN","ARG_OF_PERICENTER":"58.6128","SEMIMAJOR_AXIS":"6925.376","ELEMENT_SET_NO":"999","RA_OF_ASC_NODE":"356.4400","TIME_SYSTEM":"UTC","CENTER_NAME":"EARTH","PERIOD":"95.593","NORAD_CAT_ID":"47823","EPOCH":"2022-03-03T20:53:04.882560","MEAN_ANOMALY":"301.5033","TLE_LINE1":"1 47823U 21018AN  22062.87019540  .00000812  00000-0  73419-4 0  9991","DECAY_DATE":null,"LAUNCH_DATE":"2021-03-11","REF_FRAME":"TEME","COUNTRY_CODE":"US","APOAPSIS":"548.461","MEAN_MOTION_DDOT":"0.0000000000000","INCLINATION":"53.0556","REV_AT_EPOCH":"5551","MEAN_ELEMENT_THEORY":"SGP4","EPHEMERIS_TYPE":"0","CLASSIFICATION_TYPE":"U","OBJECT_TYPE":"PAYLOAD","RCS_SIZE":"LARGE"},{"OBJECT_ID":"2021-018AP","SEMIMAJOR_AXIS":"6925.333","ARG_OF_PERICENTER":"62.7430","BSTAR":"0.00027222000000","FILE":"3343255","ECCENTRICITY":"0.00017960","MEAN_MOTION_DOT":"0.00003776","OBJECT_NAME":"STARLINK-2409","GP_ID":"197768091","TLE_LINE2":"2 47824  53.0559 356.4821 0001796  62.7430 297.3742 15.06405070 55505","PERIAPSIS":"545.954","SITE":"AFETR","MEAN_MOTION":"15.06405070","OBJECT_TYPE":"PAYLOAD","RCS_SIZE":"LARGE","EPHEMERIS_TYPE":"0","CLASSIFICATION_TYPE":"U","INCLINATION":"53.0559","MEAN_MOTION_DDOT":"0.0000000000000","REV_AT_EPOCH":"5550","MEAN_ELEMENT_THEORY":"SGP4","TLE_LINE1":"1 47824U 21018AP  22062.85912781  .00003776  00000-0  27222-3 0  9991","DECAY_DATE":null,"LAUNCH_DATE":"2021-03-11","COUNTRY_CODE":"US","REF_FRAME":"TEME","MEAN_ANOMALY":"297.3742","APOAPSIS":"548.442","EPOCH":"2022-03-03T20:37:08.642784","NORAD_CAT_ID":"47824","CENTER_NAME":"EARTH","PERIOD":"95.592","TIME_SYSTEM":"UTC","ELEMENT_SET_NO":"999","RA_OF_ASC_NODE":"356.4821"},{"ECCENTRICITY":"0.00017860","MEAN_MOTION_DOT":"0.00000323","OBJECT_NAME":"STARLINK-2410","BSTAR":"0.00004061900000","FILE":"3343255","MEAN_MOTION":"15.06395674","GP_ID":"197767340","TLE_LINE2":"2 47825  53.0580 356.3998 0001786  62.7103 297.4067 15.06395674 55510","SITE":"AFETR","PERIAPSIS":"545.990","OBJECT_ID":"2021-018AQ","SEMIMAJOR_AXIS":"6925.362","ARG_OF_PERICENTER":"62.7103","CENTER_NAME":"EARTH","PERIOD":"95.592","EPOCH":"2022-03-03T21:03:41.903712","NORAD_CAT_ID":"47825","ELEMENT_SET_NO":"999","RA_OF_ASC_NODE":"356.3998","TIME_SYSTEM":"UTC","EPHEMERIS_TYPE":"0","CLASSIFICATION_TYPE":"U","OBJECT_TYPE":"PAYLOAD","RCS_SIZE":"LARGE","DECAY_DATE":null,"TLE_LINE1":"1 47825U 21018AQ  22062.87756833  .00000323  00000-0  40619-4 0  9999","LAUNCH_DATE":"2021-03-11","REF_FRAME":"TEME","COUNTRY_CODE":"US","MEAN_ANOMALY":"297.4067","APOAPSIS":"548.464","INCLINATION":"53.0580","MEAN_MOTION_DDOT":"0.0000000000000","REV_AT_EPOCH":"5551","MEAN_ELEMENT_THEORY":"SGP4"},{"SITE":"AFETR","PERIAPSIS":"545.799","TLE_LINE2":"2 47826  53.0549 357.9125 0001989  52.5496 307.5674 15.06412188 55463","GP_ID":"197767590","MEAN_MOTION":"15.06412188","FILE":"3343255","BSTAR":"0.00034170000000","OBJECT_NAME":"STARLINK-2411","ECCENTRICITY":"0.00019890","MEAN_MOTION_DOT":"0.00004813","ARG_OF_PERICENTER":"52.5496","SEMIMAJOR_AXIS":"6925.311","OBJECT_ID":"2021-018AR","TIME_SYSTEM":"UTC","RA_OF_ASC_NODE":"357.9125","ELEMENT_SET_NO":"999","NORAD_CAT_ID":"47826","EPOCH":"2022-03-03T13:00:40.849344","PERIOD":"95.591","CENTER_NAME":"EARTH","MEAN_ELEMENT_THEORY":"SGP4","REV_AT_EPOCH":"5546","MEAN_MOTION_DDOT":"0.0000000000000","INCLINATION":"53.0549","APOAPSIS":"548.554","MEAN_ANOMALY":"307.5674","DECAY_DATE":null,"TLE_LINE1":"1 47826U 21018AR  22062.54213946  .00004813  00000-0  34170-3 0  9999","REF_FRAME":"TEME","LAUNCH_DATE":"2021-03-11","COUNTRY_CODE":"US","RCS_SIZE":"LARGE","OBJECT_TYPE":"PAYLOAD","CLASSIFICATION_TYPE":"U","EPHEMERIS_TYPE":"0"},{"CLASSIFICATION_TYPE":"U","EPHEMERIS_TYPE":"0","RCS_SIZE":"LARGE","OBJECT_TYPE":"PAYLOAD","APOAPSIS":"548.445","MEAN_ANOMALY":"297.4347","TLE_LINE1":"1 47827U 21018AS  22062.56791980  .00001349  00000-0  10942-3 0  9993","DECAY_DATE":null,"LAUNCH_DATE":"2021-03-11","REF_FRAME":"TEME","COUNTRY_CODE":"US","REV_AT_EPOCH":"5566","MEAN_ELEMENT_THEORY":"SGP4","MEAN_MOTION_DDOT":"0.0000000000000","INCLINATION":"53.0547","PERIOD":"95.592","CENTER_NAME":"EARTH","NORAD_CAT_ID":"47827","EPOCH":"2022-03-03T13:37:48.270720","RA_OF_ASC_NODE":"347.7966","ELEMENT_SET_NO":"999","TIME_SYSTEM":"UTC","ARG_OF_PERICENTER":"62.6825","SEMIMAJOR_AXIS":"6925.335","OBJECT_ID":"2021-018AS","OBJECT_NAME":"STARLINK-2413","ECCENTRICITY":"0.00017980","MEAN_MOTION_DOT":"0.00001349","FILE":"3343255","BSTAR":"0.00010942000000","MEAN_MOTION":"15.06404554","PERIAPSIS":"545.954","SITE":"AFETR","GP_ID":"197767841","TLE_LINE2":"2 47827  53.0547 347.7966 0001798  62.6825 297.4347 15.06404554 55662"},{"TLE_LINE2":"2 47828  53.0548   6.4921 0002223  52.9797 307.1395 15.06398379 55375","GP_ID":"197768592","PERIAPSIS":"545.679","SITE":"AFETR","MEAN_MOTION":"15.06398379","FILE":"3343255","BSTAR":"0.00017652000000","MEAN_MOTION_DOT":"0.00002348","ECCENTRICITY":"0.00022230","OBJECT_NAME":"STARLINK-2415","OBJECT_ID":"2021-018AT","SEMIMAJOR_AXIS":"6925.354","ARG_OF_PERICENTER":"52.9797","TIME_SYSTEM":"UTC","ELEMENT_SET_NO":"999","RA_OF_ASC_NODE":"6.4921","NORAD_CAT_ID":"47828","EPOCH":"2022-03-03T20:35:49.374240","CENTER_NAME":"EARTH","PERIOD":"95.592","MEAN_MOTION_DDOT":"0.0000000000000","INCLINATION":"53.0548","REV_AT_EPOCH":"5537","MEAN_ELEMENT_THEORY":"SGP4","MEAN_ANOMALY":"307.1395","DECAY_DATE":null,"TLE_LINE1":"1 47828U 21018AT  22062.85821035  .00002348  00000-0  17652-3 0  9996","REF_FRAME":"TEME","LAUNCH_DATE":"2021-03-11","COUNTRY_CODE":"US","APOAPSIS":"548.758","OBJECT_TYPE":"PAYLOAD","RCS_SIZE":"LARGE","EPHEMERIS_TYPE":"0","CLASSIFICATION_TYPE":"U"},{"MEAN_ELEMENT_THEORY":"SGP4","REV_AT_EPOCH":"5535","INCLINATION":"53.0551","MEAN_MOTION_DDOT":"0.0000000000000","APOAPSIS":"548.396","TLE_LINE1":"1 47829U 21018AU  22062.81028834  .00002050  00000-0  15646-3 0  9990","LAUNCH_DATE":"2021-03-11","DECAY_DATE":null,"COUNTRY_CODE":"US","REF_FRAME":"TEME","MEAN_ANOMALY":"304.0185","RCS_SIZE":"LARGE","OBJECT_TYPE":"PAYLOAD","CLASSIFICATION_TYPE":"U","EPHEMERIS_TYPE":"0","TIME_SYSTEM":"UTC","RA_OF_ASC_NODE":"6.7088","ELEMENT_SET_NO":"999","EPOCH":"2022-03-03T19:26:48.912576","NORAD_CAT_ID":"47829","PERIOD":"95.592","CENTER_NAME":"EARTH","SEMIMAJOR_AXIS":"6925.344","ARG_OF_PERICENTER":"56.0967","OBJECT_ID":"2021-018AU","PERIAPSIS":"546.021","SITE":"AFETR","GP_ID":"197766840","TLE_LINE2":"2 47829  53.0551   6.7088 0001715  56.0967 304.0185 15.06401650 55354","MEAN_MOTION":"15.06401650","BSTAR":"0.00015646000000","FILE":"3343255","OBJECT_NAME":"STARLINK-2416","MEAN_MOTION_DOT":"0.00002050","ECCENTRICITY":"0.00017150"},{"TLE_LINE1":"1 47830U 21018AV  22062.54121590  .00000654  00000-0  62818-4 0  9997","DECAY_DATE":null,"COUNTRY_CODE":"US","LAUNCH_DATE":"2021-03-11","REF_FRAME":"TEME","MEAN_ANOMALY":"299.6595","APOAPSIS":"548.473","INCLINATION":"53.0564","MEAN_MOTION_DDOT":"0.0000000000000","REV_AT_EPOCH":"5531","MEAN_ELEMENT_THEORY":"SGP4","EPHEMERIS_TYPE":"0","CLASSIFICATION_TYPE":"U","OBJECT_TYPE":"PAYLOAD","RCS_SIZE":"LARGE","ELEMENT_SET_NO":"999","RA_OF_ASC_NODE":"7.9107","TIME_SYSTEM":"UTC","CENTER_NAME":"EARTH","PERIOD":"95.591","EPOCH":"2022-03-03T12:59:21.053760","NORAD_CAT_ID":"47830","OBJECT_ID":"2021-018AV","SEMIMAJOR_AXIS":"6925.316","ARG_OF_PERICENTER":"60.4580","MEAN_MOTION":"15.06410540","GP_ID":"197767090","TLE_LINE2":"2 47830  53.0564   7.9107 0001865  60.4580 299.6595 15.06410540 55319","SITE":"AFETR","PERIAPSIS":"545.890","MEAN_MOTION_DOT":"0.00000654","ECCENTRICITY":"0.00018650","OBJECT_NAME":"STARLINK-2419","BSTAR":"0.00006281800000","FILE":"3343255"},{"APOAPSIS":"548.414","MEAN_ANOMALY":"302.9927","TLE_LINE1":"1 47831U 21018AW  22062.87342486  .00002532  00000-0  18885-3 0  9994","DECAY_DATE":null,"LAUNCH_DATE":"2021-03-11","REF_FRAME":"TEME","COUNTRY_CODE":"US","REV_AT_EPOCH":"5577","MEAN_ELEMENT_THEORY":"SGP4","MEAN_MOTION_DDOT":"0.0000000000000","INCLINATION":"53.0626","CLASSIFICATION_TYPE":"U","EPHEMERIS_TYPE":"0","RCS_SIZE":"LARGE","OBJECT_TYPE":"PAYLOAD","RA_OF_ASC_NODE":"341.3835","ELEMENT_SET_NO":"999","TIME_SYSTEM":"UTC","PERIOD":"95.592","CENTER_NAME":"EARTH","NORAD_CAT_ID":"47831","EPOCH":"2022-03-03T20:57:43.907904","SEMIMAJOR_AXIS":"6925.360","ARG_OF_PERICENTER":"57.1227","OBJECT_ID":"2021-018AW","MEAN_MOTION":"15.06396224","PERIAPSIS":"546.036","SITE":"AFETR","TLE_LINE2":"2 47831  53.0626 341.3835 0001717  57.1227 302.9927 15.06396224 55778","GP_ID":"197768342","OBJECT_NAME":"STARLINK-2420","ECCENTRICITY":"0.00017170","MEAN_MOTION_DOT":"0.00002532","FILE":"3343255","BSTAR":"0.00018885000000"},{"MEAN_MOTION":"15.06397143","TLE_LINE2":"2 47832  53.0546 359.0042 0001848  59.5211 300.5961 15.06397143 55425","GP_ID":"197708173","PERIAPSIS":"545.943","SITE":"AFETR","MEAN_MOTION_DOT":"-0.00001737","ECCENTRICITY":"0.00018480","OBJECT_NAME":"STARLINK-2422","BSTAR":"-0.00009773500000","FILE":"3342689","OBJECT_ID":"2021-018AX","ARG_OF_PERICENTER":"59.5211","SEMIMAJOR_AXIS":"6925.357","ELEMENT_SET_NO":"999","RA_OF_ASC_NODE":"359.0042","TIME_SYSTEM":"UTC","CENTER_NAME":"EARTH","PERIOD":"95.592","EPOCH":"2022-03-03T07:10:22.402560","NORAD_CAT_ID":"47832","TLE_LINE1":"1 47832U 21018AX  22062.29887040 -.00001737  00000-0 -97735-4 0  9991","DECAY_DATE":null,"COUNTRY_CODE":"US","LAUNCH_DATE":"2021-03-11","REF_FRAME":"TEME","MEAN_ANOMALY":"300.5961","APOAPSIS":"548.502","INCLINATION":"53.0546","MEAN_MOTION_DDOT":"0.0000000000000","REV_AT_EPOCH":"5542","MEAN_ELEMENT_THEORY":"SGP4","EPHEMERIS_TYPE":"0","CLASSIFICATION_TYPE":"U","OBJECT_TYPE":"PAYLOAD","RCS_SIZE":"LARGE"}];
